[{"OBJECT_NAME":"STARLINK-36362","OBJECT_ID":"2026-005W","EPOCH":"2026-03-09T22:00:01.999584","MEAN_MOTION":15.28371267,"ECCENTRICITY":0.00025187,"INCLINATION":42.9994,"RA_OF_ASC_NODE":236.7845,"ARG_OF_PERICENTER":281.2971,"MEAN_ANOMALY":317.6523,"EPHEMERIS_TYPE":0,"CLASSIFICATION_TYPE":"U","NORAD_CAT_ID":67424,"ELEMENT_SET_NO":999,"REV_AT_EPOCH":590,"BSTAR":0.0027312751,"MEAN_MOTION_DOT":0.0007755,"MEAN_MOTION_DDOT":0},{"OBJECT_NAME":"NOAA 16 DEB","OBJECT_ID":"2000-055BK","EPOCH":"2026-03-09T02:17:10.174560","MEAN_MOTION":15.30191008,"ECCENTRICITY":0.00052528,"INCLINATION":98.9831,"RA_OF_ASC_NODE":305.6383,"ARG_OF_PERICENTER":26.64,"MEAN_ANOMALY":333.5104,"EPHEMERIS_TYPE":0,"CLASSIFICATION_TYPE":"U","NORAD_CAT_ID":41128,"ELEMENT_SET_NO":999,"REV_AT_EPOCH":53406,"BSTAR":0.017668961,"MEAN_MOTION_DOT":0.00549039,"MEAN_MOTION_DDOT":0}]
